[{"OBJECT_NAME":"INTELSAT 902 (IS-902)","OBJECT_ID":"2001-039A","EPOCH":"2026-04-26T18:27:43.807392","MEAN_MOTION":1.00270813,"ECCENTRICITY":0.0004516,"INCLINATION":5.9889,"RA_OF_ASC_NODE":72.3959,"ARG_OF_PERICENTER":319.9031,"MEAN_ANOMALY":49.3051,"EPHEMERIS_TYPE":0,"CLASSIFICATION_TYPE":"U","NORAD_CAT_ID":26900,"ELEMENT_SET_NO":999,"REV_AT_EPOCH":9018,"BSTAR":0,"MEAN_MOTION_DOT":-2.9e-6,"MEAN_MOTION_DDOT":0},{"OBJECT_NAME":"INTELSAT 904 (IS-904)","OBJECT_ID":"2002-007A","EPOCH":"2026-04-26T16:50:21.696000","MEAN_MOTION":1.00269764,"ECCENTRICITY":0.0007747,"INCLINATION":6.7944,"RA_OF_ASC_NODE":69.7905,"ARG_OF_PERICENTER":338.929,"MEAN_ANOMALY":27.0697,"EPHEMERIS_TYPE":0,"CLASSIFICATION_TYPE":"U","NORAD_CAT_ID":27380,"ELEMENT_SET_NO":999,"REV_AT_EPOCH":5125,"BSTAR":0,"MEAN_MOTION_DOT":-2.33e-6,"MEAN_MOTION_DDOT":0},{"OBJECT_NAME":"DIRECTV 5 (TEMPO 1)","OBJECT_ID":"2002-023A","EPOCH":"2026-04-26T16:38:38.601312","MEAN_MOTION":1.00271929,"ECCENTRICITY":0.0003465,"INCLINATION":4.7487,"RA_OF_ASC_NODE":75.9345,"ARG_OF_PERICENTER":322.2606,"MEAN_ANOMALY":316.0501,"EPHEMERIS_TYPE":0,"CLASSIFICATION_TYPE":"U","NORAD_CAT_ID":27426,"ELEMENT_SET_NO":999,"REV_AT_EPOCH":8760,"BSTAR":0,"MEAN_MOTION_DOT":-6.5e-7,"MEAN_MOTION_DDOT":0},{"OBJECT_NAME":"INTELSAT 905 (IS-905)","OBJECT_ID":"2002-027A","EPOCH":"2026-04-26T12:59:02.680800","MEAN_MOTION":1.00273539,"ECCENTRICITY":0.0003443,"INCLINATION":6.6267,"RA_OF_ASC_NODE":70.4097,"ARG_OF_PERICENTER":338.8087,"MEAN_ANOMALY":222.8894,"EPHEMERIS_TYPE":0,"CLASSIFICATION_TYPE":"U","NORAD_CAT_ID":27438,"ELEMENT_SET_NO":999,"REV_AT_EPOCH":5084,"BSTAR":0,"MEAN_MOTION_DOT":8.6e-7,"MEAN_MOTION_DDOT":0},{"OBJECT_NAME":"GALAXY 3C (G-3C)","OBJECT_ID":"2002-030A","EPOCH":"2026-04-26T19:57:43.186176","MEAN_MOTION":1.00271799,"ECCENTRICITY":0.0001584,"INCLINATION":3.5994,"RA_OF_ASC_NODE":78.6611,"ARG_OF_PERICENTER":24.4968,"MEAN_ANOMALY":316.2338,"EPHEMERIS_TYPE":0,"CLASSIFICATION_TYPE":"U","NORAD_CAT_ID":27445,"ELEMENT_SET_NO":999,"REV_AT_EPOCH":4597,"BSTAR":0,"MEAN_MOTION_DOT":-1.61e-6,"MEAN_MOTION_DDOT":0},{"OBJECT_NAME":"INTELSAT 906 (IS-906)","OBJECT_ID":"2002-041A","EPOCH":"2026-04-26T12:09:40.599360","MEAN_MOTION":1.00270567,"ECCENTRICITY":0.00040314,"INCLINATION":5.6728,"RA_OF_ASC_NODE":73.5414,"ARG_OF_PERICENTER":335.4769,"MEAN_ANOMALY":52.0681,"EPHEMERIS_TYPE":0,"CLASSIFICATION_TYPE":"U","NORAD_CAT_ID":27513,"ELEMENT_SET_NO":999,"REV_AT_EPOCH":8651,"BSTAR":0,"MEAN_MOTION_DOT":5.0e-8,"MEAN_MOTION_DDOT":0},{"OBJECT_NAME":"GALAXY 13 (HORIZONS-1)","OBJECT_ID":"2003-044A","EPOCH":"2026-04-26T17:59:16.534752","MEAN_MOTION":1.00273453,"ECCENTRICITY":0.0002205,"INCLINATION":1.2864,"RA_OF_ASC_NODE":84.465,"ARG_OF_PERICENTER":314.3392,"MEAN_ANOMALY":295.7635,"EPHEMERIS_TYPE":0,"CLASSIFICATION_TYPE":"U","NORAD_CAT_ID":27954,"ELEMENT_SET_NO":999,"REV_AT_EPOCH":4605,"BSTAR":0,"MEAN_MOTION_DOT":1.22e-6,"MEAN_MOTION_DDOT":0},{"OBJECT_NAME":"INTELSAT 10-02","OBJECT_ID":"2004-022A","EPOCH":"2026-04-26T19:47:14.567424","MEAN_MOTION":1.00269692,"ECCENTRICITY":0.0001266,"INCLINATION":0.0153,"RA_OF_ASC_NODE":76.4741,"ARG_OF_PERICENTER":356.7621,"MEAN_ANOMALY":77.3601,"EPHEMERIS_TYPE":0,"CLASSIFICATION_TYPE":"U","NORAD_CAT_ID":28358,"ELEMENT_SET_NO":999,"REV_AT_EPOCH":8004,"BSTAR":0,"MEAN_MOTION_DOT":0,"MEAN_MOTION_DDOT":0},{"OBJECT_NAME":"DIRECTV 8","OBJECT_ID":"2005-019A","EPOCH":"2026-04-26T17:22:20.550144","MEAN_MOTION":1.0027098,"ECCENTRICITY":0.000322,"INCLINATION":0.0135,"RA_OF_ASC_NODE":228.9159,"ARG_OF_PERICENTER":174.3891,"MEAN_ANOMALY":312.95,"EPHEMERIS_TYPE":0,"CLASSIFICATION_TYPE":"U","NORAD_CAT_ID":28659,"ELEMENT_SET_NO":999,"REV_AT_EPOCH":7655,"BSTAR":0,"MEAN_MOTION_DOT":0,"MEAN_MOTION_DDOT":0},{"OBJECT_NAME":"GALAXY 28 (G-28)","OBJECT_ID":"2005-022A","EPOCH":"2026-04-26T20:17:03.831072","MEAN_MOTION":1.00266347,"ECCENTRICITY":0.0003239,"INCLINATION":3.1689,"RA_OF_ASC_NODE":79.544,"ARG_OF_PERICENTER":317.9585,"MEAN_ANOMALY":94.4845,"EPHEMERIS_TYPE":0,"CLASSIFICATION_TYPE":"U","NORAD_CAT_ID":28702,"ELEMENT_SET_NO":999,"REV_AT_EPOCH":5146,"BSTAR":0,"MEAN_MOTION_DOT":-2.09e-6,"MEAN_MOTION_DDOT":0},{"OBJECT_NAME":"GALAXY 16 (G-16)","OBJECT_ID":"2006-023A","EPOCH":"2026-04-26T19:56:20.816736","MEAN_MOTION":1.00274271,"ECCENTRICITY":0.0003129,"INCLINATION":0.0208,"RA_OF_ASC_NODE":227.6981,"ARG_OF_PERICENTER":181.7838,"MEAN_ANOMALY":5.4417,"EPHEMERIS_TYPE":0,"CLASSIFICATION_TYPE":"U","NORAD_CAT_ID":29236,"ELEMENT_SET_NO":999,"REV_AT_EPOCH":7245,"BSTAR":0,"MEAN_MOTION_DOT":-1.39e-6,"MEAN_MOTION_DDOT":0},{"OBJECT_NAME":"DIRECTV 9S","OBJECT_ID":"2006-043A","EPOCH":"2026-04-26T14:47:48.447744","MEAN_MOTION":1.00271649,"ECCENTRICITY":0.0004188,"INCLINATION":2.2897,"RA_OF_ASC_NODE":81.4909,"ARG_OF_PERICENTER":329.6314,"MEAN_ANOMALY":284.2412,"EPHEMERIS_TYPE":0,"CLASSIFICATION_TYPE":"U","NORAD_CAT_ID":29494,"ELEMENT_SET_NO":999,"REV_AT_EPOCH":5086,"BSTAR":0,"MEAN_MOTION_DOT":-1.23e-6,"MEAN_MOTION_DDOT":0},{"OBJECT_NAME":"GALAXY 17 (G-17)","OBJECT_ID":"2007-016B","EPOCH":"2026-04-26T13:09:50.774976","MEAN_MOTION":1.00270951,"ECCENTRICITY":0.00042892,"INCLINATION":2.8436,"RA_OF_ASC_NODE":80.5219,"ARG_OF_PERICENTER":329.2846,"MEAN_ANOMALY":277.2018,"EPHEMERIS_TYPE":0,"CLASSIFICATION_TYPE":"U","NORAD_CAT_ID":31307,"ELEMENT_SET_NO":999,"REV_AT_EPOCH":6928,"BSTAR":0,"MEAN_MOTION_DOT":-2.16e-6,"MEAN_MOTION_DDOT":0},{"OBJECT_NAME":"INTELSAT 11 (IS-11)","OBJECT_ID":"2007-044B","EPOCH":"2026-04-26T08:24:13.753152","MEAN_MOTION":0.99052914,"ECCENTRICITY":0.00014254,"INCLINATION":3.4326,"RA_OF_ASC_NODE":79.2733,"ARG_OF_PERICENTER":224.1898,"MEAN_ANOMALY":30.6468,"EPHEMERIS_TYPE":0,"CLASSIFICATION_TYPE":"U","NORAD_CAT_ID":32253,"ELEMENT_SET_NO":999,"REV_AT_EPOCH":6793,"BSTAR":0,"MEAN_MOTION_DOT":-2.05e-6,"MEAN_MOTION_DDOT":0},{"OBJECT_NAME":"HORIZONS-2","OBJECT_ID":"2007-063B","EPOCH":"2026-04-26T13:12:57.976128","MEAN_MOTION":1.00272551,"ECCENTRICITY":0.00034219,"INCLINATION":2.471,"RA_OF_ASC_NODE":81.2314,"ARG_OF_PERICENTER":321.7928,"MEAN_ANOMALY":295.9753,"EPHEMERIS_TYPE":0,"CLASSIFICATION_TYPE":"U","NORAD_CAT_ID":32388,"ELEMENT_SET_NO":999,"REV_AT_EPOCH":6729,"BSTAR":0,"MEAN_MOTION_DOT":-2.63e-6,"MEAN_MOTION_DDOT":0},{"OBJECT_NAME":"DIRECTV 11","OBJECT_ID":"2008-013A","EPOCH":"2026-04-26T12:40:28.257312","MEAN_MOTION":1.00270902,"ECCENTRICITY":2.438e-5,"INCLINATION":0.0118,"RA_OF_ASC_NODE":111.7847,"ARG_OF_PERICENTER":245.0873,"MEAN_ANOMALY":308.5801,"EPHEMERIS_TYPE":0,"CLASSIFICATION_TYPE":"U","NORAD_CAT_ID":32729,"ELEMENT_SET_NO":999,"REV_AT_EPOCH":4507,"BSTAR":0,"MEAN_MOTION_DOT":-1.38e-6,"MEAN_MOTION_DDOT":0},{"OBJECT_NAME":"GALAXY 18 (G-18)","OBJECT_ID":"2008-024A","EPOCH":"2026-04-26T16:24:16.698240","MEAN_MOTION":1.00271793,"ECCENTRICITY":0.0003216,"INCLINATION":0.017,"RA_OF_ASC_NODE":261.6707,"ARG_OF_PERICENTER":140.6906,"MEAN_ANOMALY":295.3865,"EPHEMERIS_TYPE":0,"CLASSIFICATION_TYPE":"U","NORAD_CAT_ID":32951,"ELEMENT_SET_NO":999,"REV_AT_EPOCH":4533,"BSTAR":0,"MEAN_MOTION_DOT":1.3e-7,"MEAN_MOTION_DDOT":0}]
