INTELSAT 902 (IS-902)   
1 26900U 01039A   26116.76925703 -.00000290  00000+0  00000+0 0  9995
2 26900   5.9889  72.3959 0004516 319.9031  49.3051  1.00270813 90187
INTELSAT 904 (IS-904)   
1 27380U 02007A   26116.70164000 -.00000233  00000+0  00000+0 0  9990
2 27380   6.7944  69.7905 0007747 338.9290  27.0697  1.00269764 51256
DIRECTV 5 (TEMPO 1)     
1 27426U 02023A   26116.69350233 -.00000065  00000+0  00000+0 0  9995
2 27426   4.7487  75.9345 0003465 322.2606 316.0501  1.00271929 87603
INTELSAT 905 (IS-905)   
1 27438U 02027A   26116.54100325  .00000086  00000+0  00000+0 0  9993
2 27438   6.6267  70.4097 0003443 338.8087 222.8894  1.00273539 50843
GALAXY 3C (G-3C)        
1 27445U 02030A   26116.83174984 -.00000161  00000+0  00000+0 0  9994
2 27445   3.5994  78.6611 0001584  24.4968 316.2338  1.00271799 45971
INTELSAT 906 (IS-906)   
1 27513U 02041A   26116.50671990  .00000005  00000+0  00000+0 0  9991
2 27513   5.6728  73.5414 0004031 335.4769  52.0681  1.00270567 86517
GALAXY 13 (HORIZONS-1)  
1 27954U 03044A   26116.74949693  .00000122  00000+0  00000+0 0  9998
2 27954   1.2864  84.4650 0002205 314.3392 295.7635  1.00273453 46058
INTELSAT 10-02          
1 28358U 04022A   26116.82447416  .00000000  00000+0  00000+0 0  9994
2 28358   0.0153  76.4741 0001266 356.7621  77.3601  1.00269692 80042
DIRECTV 8               
1 28659U 05019A   26116.72384896  .00000000  00000+0  00000+0 0  9996
2 28659   0.0135 228.9159 0003220 174.3891 312.9500  1.00270980 76557
GALAXY 28 (G-28)        
1 28702U 05022A   26116.84518323 -.00000209  00000+0  00000+0 0  9998
2 28702   3.1689  79.5440 0003239 317.9585  94.4845  1.00266347 51461
GALAXY 16 (G-16)        
1 29236U 06023A   26116.83079649 -.00000139  00000+0  00000+0 0  9997
2 29236   0.0208 227.6981 0003129 181.7838   5.4417  1.00274271 72453
DIRECTV 9S              
1 29494U 06043A   26116.61653296 -.00000123  00000+0  00000+0 0  9990
2 29494   2.2897  81.4909 0004188 329.6314 284.2412  1.00271649 50860
GALAXY 17 (G-17)        
1 31307U 07016B   26116.54850434 -.00000216  00000+0  00000+0 0  9995
2 31307   2.8436  80.5219 0004289 329.2846 277.2018  1.00270951 69288
INTELSAT 11 (IS-11)     
1 32253U 07044B   26116.35015918 -.00000205  00000+0  00000+0 0  9994
2 32253   3.4326  79.2733 0001425 224.1898  30.6468  0.99052914 67933
HORIZONS-2              
1 32388U 07063B   26116.55067102 -.00000263  00000+0  00000+0 0  9992
2 32388   2.4710  81.2314 0003421 321.7928 295.9753  1.00272551 67298
DIRECTV 11              
1 32729U 08013A   26116.52810483 -.00000138  00000+0  00000+0 0  9993
2 32729   0.0118 111.7847 0000243 245.0873 308.5801  1.00270902 45074
GALAXY 18 (G-18)        
1 32951U 08024A   26116.68352660  .00000013  00000+0  00000+0 0  9998
2 32951   0.0170 261.6707 0003216 140.6906 295.3865  1.00271793 45330
